CAPELLA-11 (ACADIA-1)   
1 57693U 23126A   26203.52275816  .00003917  00000+0  47723-3 0  9998
2 57693  53.0143  31.4342 0001409 159.5824 200.5212 14.85378792157372
CAPELLA-14 (ACADIA-4)   
1 59444U 24066C   26204.05676895  .00013424  00000+0  89980-3 0  9994
2 59444  45.6035  66.7112 0000951 204.7548 155.3291 15.06902881117903
CAPELLA-13 (ACADIA-3)   
1 60419U 24142A   26204.17623795  .00002432  00000+0  29032-3 0  9996
2 60419  53.0038 260.4756 0001329  88.5016 271.6117 14.87666490105769
CAPELLA-15 (ACADIA-5)   
1 60544U 24149CE  26203.18736740  .00002932  00000+0  29175-3 0  9990
2 60544  97.6752 275.2124 0002793 309.4682  50.6290 14.92392787105070
CAPELLA-17 (ACADIA-7)   
1 64583U 25135BH  26204.29640699  .00005725  00000+0  57446-3 0  9998
2 64583  97.7706 317.3887 0004607 217.8625 142.2270 14.91687637 59238
CAPELLA-16 (ACADIA-6)   
1 65318U 25188D   26204.19087110  .00005975  00000+0  56382-3 0  9990
2 65318  97.7366 278.8049 0005755 116.1323 244.0489 14.94116450 49290
CAPELLA-19 (ACADIA-9)   
1 67384U 26004X   26203.46775536  .00004600  00000+0  52383-3 0  9999
2 67384  97.8014 201.2037 0001523  96.2052 263.9337 14.86662039 28513
CAPELLA-18 (ACADIA-8)   
1 67385U 26004Y   26203.94895309  .00004066  00000+0  46384-3 0  9994
2 67385  97.8003 201.8273 0001240  80.3843 279.7513 14.86655189 28595
CAPELLA-20 (ACADIA-10)  
1 68485U 26067BX  26203.71208203  .00005524  00000+0  55865-3 0  9995
2 68485  97.7659 161.4334 0003234  27.5233 332.6156 14.91390790 17021
